{
  "norad_id": 43208,
  "name": "BEIDOU-3 M3",
  "history": [
    {
      "epoch": "2026-03-20T16:04:52.510080Z",
      "apogee_km": 21556.235965566902,
      "perigee_km": 21499.872157108857,
      "latitude_deg": -6.270887444482456e-05,
      "longitude_deg": 6.628751311046536,
      "height_km": 21506.020325448157,
      "semi_major_axis_km": 27906.19106133788,
      "eccentricity": 0.00100988,
      "inclination_deg": 56.5746,
      "raan_deg": 66.0695,
      "arg_perigee_deg": 322.3953,
      "mean_anomaly_deg": 37.533,
      "mean_motion_rev_day": 1.86230975
    }
  ]
}